#dP2019  7  8  0  0  0.00000000     289 d+D   IGS14 FIT AIUB
## 2061  86400.00000000   300.00000000 58672 0.0000000000000
+   93   G01G02G03G04G05G06G07G08G09G10G11G12G13G14G15G16G17
+        G18G19G20G21G22G23G24G25G26G27G28G29G30G31G32R01R02
+        R03R04R05R07R08R09R10R11R12R13R14R15R16R17R18R19R20
+        R21R22R23R24R26E01E02E03E04E05E07E08E09E11E12E13E14
+        E15E18E19E21E24E25E26E27E30E31E33E36C06C07C08C09C10
+        C11C12C13C14C16J01J02J03  0  0  0  0  0  0  0  0  0
++         5  5  5  5  5  5  5  5  5  5  5  5  5  5  5  5  5
++         5  5  5  5  5  5  5  5  5  5  5  5  5  5  5  5  5
++         5  5  5  5  5  5  5  5  5  6  5  5  5  5  5  5  5
++         5  5  5  5  5  5  5  5  5  5  5  5  5  5  5  5  5
++         5  5  5  5  5  5  5  5  5  5  5  5  5  6  5  5  6
++         5  5  5  5  5  5  5  5  0  0  0  0  0  0  0  0  0
%c M  cc GPS ccc cccc cccc cccc cccc ccccc ccccc ccccc ccccc
%c cc cc ccc ccc cccc cccc cccc cccc ccccc ccccc ccccc ccccc
%f  1.2500000  1.025000000  0.00000000000  0.000000000000000
%f  0.0000000  0.000000000  0.00000000000  0.000000000000000
%i    0    0    0    0      0      0      0      0         0
%i    0    0    0    0      0      0      0      0         0
/* CODE MGEX orbits and clocks                                                  
/* of DOY 19189                                                                 
/*                                                                              
/* PCV:IGS14      OL/AL:FES2004  NONE     YN ORB:CoN CLK:CoN                    
*  2019  7  8 15 55  0.00000000
PG01  13541.793483  -8645.578380  20890.800077    -61.780895
PG02 -13980.696006 -14629.925608 -16672.532902   -255.526594
PG03  23026.305151 -12568.005598   3793.784662    182.181045
PG04   1039.332652 -16100.243843 -21086.183650    170.635073
PG05 -18266.112924  -3641.736458 -19136.503808      0.149727
PG06  -6538.717756 -24820.978227  -6717.375311    155.497651
PG07   7363.163474 -21926.298108 -12343.694503    -60.262284
PG08  24358.144110   3457.141987  10305.276387   -150.435360
PG09   8692.663464 -12899.499375 -21567.783258    375.258720
PG10  -2806.844259  18134.209366  19191.684012     -9.322794
PG11  15606.568728  -4721.240260  20411.273593   -566.116354
PG12 -23916.512320   9588.876461   5854.052651    225.806943
PG13 -23182.315436 -12743.612926   2572.992625    -55.540738
PG14  15808.735915  18374.744434  11397.401061    -72.477145
PG15 -24636.667695   -947.069368  10105.262286   -302.186872
PG16  17754.429691   4885.722151 -19488.582304    -54.520400
PG17  -8656.341103 -18191.191717  17762.425557     85.163591
PG18  15283.081370   1199.118585  21201.416655     68.258000
PG19 -14700.673515 -18334.190106  12015.145247   -296.733821
PG20 -10497.008934  21124.367447  11946.893149    525.841421
PG21  -1933.914702  25251.594931  -7477.743929   -158.479304
PG22  22925.994552  -7666.882550  11134.827047   -728.285165
PG23  20666.057546  -3523.143866 -16192.031288   -178.188155
PG24 -14859.155918   5620.444372  21096.424355    -68.564061
PG25 -18583.783972  17810.444293  -6201.571457   -771.895703
PG26   9224.546196  12372.827309 -21635.823004    246.287926
PG27  23625.810301  12406.451462  -1577.282555   -179.265040
PG28   4492.435410 -17744.725842  19886.399253    766.700279
PG29 -12694.453876   9200.825294 -21479.264945    156.621585
PG30    816.073595 -26330.491106  -2400.081588   -139.144129
PG31   7103.178201  23905.601255  -8462.354155     25.699114
PG32  10013.279930  17926.254612  16975.416318    -11.144343
PR01 -25192.923797   3815.429497   1389.247438     46.425057
PR02 -13087.613136  10521.235816  19224.560879    377.329698
PR03   6014.699285  10211.927639  22637.460257     -2.051684
PR04  21940.308992   3617.154931  12533.153453    313.024950
PR05  24811.675818  -4524.056830  -3868.680277     31.505435
PR07  -6506.324853 -10077.902867 -22466.793928    -23.107143
PR08 -21506.053497  -3960.790408 -13069.348689     16.832618
PR09   9957.428847 -23428.261669    840.332369     79.063183
PR10   1682.766889 -20462.751859  15058.286432     53.952883
PR11  -9696.154071  -5441.641306  22971.675485    -72.045485
PR12 -14243.836229  11645.703507  17689.246677     41.793969
PR13 -10641.908265  23149.341837   1343.215817    -25.715476
PR14  -1259.511222  20525.874803 -15092.756268     40.716807
PR15   9060.413467   6322.510071 -22969.087058    102.969153
PR16  14212.650819 -12065.656449 -17485.750869      7.664913
PR17  10649.527771  21483.677921  -8645.809224    242.001801
PR18  17013.642743  17086.927168   8414.759907     -0.473932
PR19  14057.716448   3869.978536  20923.355470    -40.876674
PR20   2306.546363 -13612.189248  21438.522349   -383.700737
PR21 -11085.955069 -21551.040537   7994.412034    -58.618693
PR22 -17060.082293 -15334.116409 -11026.977061    -27.529914
PR23 -11455.238815   1613.368459 -22747.234491    239.360423
PR24   -660.570358  15046.060787 -20622.736217   -182.419499
PR26   4201.353264 -11467.024553  22405.302286    -17.762724
PE01  21201.940209  -7266.077284 -19329.261436   -642.797756
PE02 -21218.950159   7332.932579  19291.070752     68.368546
PE03 -29380.746969   -725.639710   3609.911331   -186.023272
PE04  19133.817716 -11669.089987 -19323.261538   -319.120171
PE05 -22480.048231 -12813.222602 -14370.619096   -468.209118
PE07   2455.623127  17352.450814  23867.398062   -222.498908
PE08 -18936.123718  11772.616525  19486.293597   6327.229680
PE09  -2686.567543 -17180.874149 -23942.777180   6384.992020
PE11  -5740.200109 -27560.016896   9108.454125   5658.864110
PE12   9244.319047 -16427.490796  22815.130738   6308.121340
PE13   5801.962442  27511.960866  -9261.028794    389.681407
PE14 -26934.675280  -5854.365296  -9760.375120   -635.137998
PE15  -8842.443043  16780.549000 -22723.035975    903.952538
PE18  22596.048337  16291.061482  -3331.275663   -730.951393
PE19  29480.081768   2036.790801  -1710.081978     -5.285632
PE21  10968.017716  12429.686961 -24525.245133   -543.112643
PE24   5587.844188 -24656.067672  15392.529207   5987.688610
PE25 -10933.556245 -12471.834033  24521.134040   1748.892570
PE26  16992.268663  22216.481732   9683.592015   4363.705430
PE27  -5696.538898  24749.706838 -15206.711687    433.216324
PE30 -19015.094361  22511.465601   2793.544206   4727.148090
PE31  18963.783716 -22519.926022  -2993.113137   -466.301975
PE33  18350.373379   3816.993253  22912.831651   -469.846023
PE36 -17089.143202 -22145.200561  -9673.390210    690.024575
PC06 -13171.337619  21414.804629  34171.069482    562.379407
PC07 -24183.992809  33221.786766 -10388.039182      9.011911
PC08  -6656.966567  35807.979223 -20935.737982    167.858556
PC09   3577.609791  26989.257030  32513.518256   -202.664175
PC10 -10785.435816  34049.890643 -22561.760029     31.461388
PC11 -22717.013281 -11989.373592 -10932.338722    234.951111
PC12  -8767.593120 -21944.502460  14965.321633    843.527986
PC13   1271.604880  40872.687586  -9649.912961   -828.926311
PC14 -18135.832447  -8593.910392 -19306.098401    537.101043
PC16 -10311.971885  21958.668047  34521.741216   -895.929513
PJ01 -30502.418436  27297.232233  15390.287661   -275.832901
PJ02 -30672.972815  26613.221607  16214.116344     -0.944532
PJ03 -24578.279879  18204.030012 -24376.067796      1.781582
EOF
